IRIDIUM 7 [-]           
1 24793U 97020B   23329.79425464  .00000793  00000+0  27188-3 0  9990
2 24793  86.3983  55.3947 0002078 101.3812 258.7618 14.34987236390219
IRIDIUM 5 [-]           
1 24795U 97020D   23329.78220775  .00008220  00000+0  82144-3 0  9995
2 24795  86.3928 344.1000 0127148   8.4416 351.8904 14.85411637400704
IRIDIUM 4 [-]           
1 24796U 97020E   23329.79206787  .00000795  00000+0  26777-3 0  9993
2 24796  86.3981  52.6516 0001974  94.8813 265.2609 14.35895995390734
IRIDIUM 914 [-]         
1 24836U 97030A   23329.81154462  .00001087  00000+0  34096-3 0  9992
2 24836  86.3949  62.9098 0000838  35.6929 324.4325 14.39716962525172
IRIDIUM 16 [-]          
1 24841U 97030F   23329.83544566  .00001107  00000+0  36267-3 0  9993
2 24841  86.4029  84.3600 0003938 115.1192 245.0415 14.37603020385175
IRIDIUM 911 [-]         
1 24842U 97030G   23329.86874907  .00001875  00000+0  51904-3 0  9999
2 24842  86.4454  83.6422 0014112 186.3917 173.7108 14.46151049392761
IRIDIUM 17 [-]          
1 24870U 97034B   23329.88448824  .00001374  00000+0  45996-3 0  9999
2 24870  86.3938 114.0047 0003709  85.2745 274.8875 14.36694656381819
IRIDIUM 920 [-]         
1 24871U 97034C   23329.86496355  .00001442  00000+0  44768-3 0  9992
2 24871  86.3962  94.5629 0012582 150.6222 209.5687 14.40418148384590
